NORAD_CAT_ID,OBJECT_NAME,OBJECT_TYPE,EPOCH,MEAN_MOTION,ECCENTRICITY,INCLINATION,RA_OF_ASC_NODE,ARG_OF_PERICENTER,MEAN_ANOMALY,BSTAR,MEAN_MOTION_DOT,MEAN_MOTION_DDOT,TLE_LINE0,TLE_LINE1,TLE_LINE2,SEMIMAJOR_AXIS,PERIOD,APOGEE,PERIGEE,DECAYED
51777.0,STARLINK-3625,PAYLOAD,2022-05-28 21:22:37,15.09013738,0.0001474,53.2132,57.769,83.1713,276.9447,-0.0023071,-0.00036992,0.0,0 STARLINK-3625,1 51777U 22017K   22148.89070860 -.00036992  00000-0 -23071-2 0  9990,2 51777  53.2132  57.7690 0001474  83.1713 276.9447 15.09013738 15617,6917.349,95.427,540.234,538.195,0.0
51777.0,STARLINK-3625,PAYLOAD,2022-05-29 06:00:02,15.08797878,0.0001678,53.2128,56.1576,52.0637,100.8457,0.002551,0.00040498,0.0,0 STARLINK-3625,1 51777U 22017K   22149.25002315  .00040498  00000-0  25510-2 0  9995,2 51777  53.2128  56.1576 0001678  52.0637 100.8457 15.08797878 15668,6918.009,95.44,541.035,538.7130000000002,0.0
51777.0,STARLINK-3625,PAYLOAD,2022-05-29 14:00:01,15.08797748,0.0001504,53.2131,54.6595,59.26600000000001,105.1439,0.0026342,0.00041836,0.0,0 STARLINK-3625,1 51777U 22017K   22149.58334491  .00041836  00000-0  26342-2 0  9995,2 51777  53.2131  54.6595 0001504  59.2660 105.1439 15.08797748  1309,6918.01,95.44,540.915,538.8340000000002,0.0
51777.0,STARLINK-3625,PAYLOAD,2022-05-29 21:13:25,15.08828426,0.0001626,53.2138,53.3097,49.6552,310.4582,-0.00019736,-3.427e-05,0.0,0 STARLINK-3625,1 51777U 22017K   22149.88431908 -.00003427  00000-0 -19736-3 0  9995,2 51777  53.2138  53.3097 0001626  49.6552 310.4582 15.08828426 14297,6917.916,95.438,540.906,538.656,0.0
51777.0,STARLINK-3625,PAYLOAD,2022-05-29 22:00:00,15.08837877,0.0001553,53.2134,53.1642,57.1883,118.7881,-0.0033916,-0.00053859,0.0,0 STARLINK-3625,1 51777U 22017K   22149.91667824 -.00053859  00000-0 -33916-2 0  9996,2 51777  53.2134  53.1642 0001553  57.1883 118.7881 15.08837877 15772,6917.887,95.438,540.826,538.678,0.0
51777.0,STARLINK-3625,PAYLOAD,2022-05-30 14:00:01,15.0881958,0.0001525,53.2131,50.1703,61.7432,137.372,0.0036502,0.00058253,0.0,0 STARLINK-3625,1 51777U 22017K   22150.58334491  .00058253  00000-0  36502-2 0  9997,2 51777  53.2131  50.1703 0001525  61.7432 137.3720 15.08819580 15875,6917.943,95.439,540.863,538.753,0.0
51777.0,STARLINK-3625,PAYLOAD,2022-05-30 22:00:00,15.08860853,0.0001634,53.2133,48.6752,59.413,151.2892,-0.0011004,-0.00017768,0.0,0 STARLINK-3625,1 51777U 22017K   22150.91667824 -.00017768  00000-0 -11004-2 0  9991,2 51777  53.2133  48.6752 0001634  59.4130 151.2892 15.08860853  1300,6917.816999999999,95.436,540.812,538.5509999999998,0.0
51777.0,STARLINK-3625,PAYLOAD,2022-05-31 06:00:02,15.08865204,0.0001638,53.2127,47.1791,54.9466,167.4244,-0.002195,-0.00035076,0.0,0 STARLINK-3625,1 51777U 22017K   22151.25002315 -.00035076  00000-0 -21950-2 0  9990,2 51777  53.2127  47.1791 0001638  54.9466 167.4244 15.08865204 15979,6917.803000000001,95.436,540.8009999999998,538.535,0.0
51777.0,STARLINK-3625,PAYLOAD,2022-05-31 22:00:00,15.08853208,0.0001557,53.2127,44.18600000000001,59.2514,186.2667,-0.0009943,-0.00016083,0.0,0 STARLINK-3625,1 51777U 22017K   22151.91667824 -.00016083  00000-0 -99430-3 0  9991,2 51777  53.2127  44.1860 0001557  59.2514 186.2667 15.08853208 16076,6917.84,95.437,540.7819999999998,538.628,0.0
51777.0,STARLINK-3625,PAYLOAD,2022-06-01 14:00:01,15.08848584,0.0001525,53.2121,41.1915,65.615,203.1262,0.00039436,5.995e-05,0.0,0 STARLINK-3625,1 51777U 22017K   22152.58334491  .00005995  00000-0  39436-3 0  9994,2 51777  53.2121  41.1915 0001525  65.6150 203.1262 15.08848584 16172,6917.854,95.437,540.774,538.664,0.0
51777.0,STARLINK-3625,PAYLOAD,2022-06-01 20:00:01,15.08858123,0.0001649,53.2123,40.0701,64.9138,122.5319,-0.0021233,-0.00033939,0.0,0 STARLINK-3625,1 51777U 22017K   22152.83334491 -.00033939  00000-0 -21233-2 0  9998,2 51777  53.2123  40.0701 0001649  64.9138 122.5319 15.08858123  1306,6917.825,95.436,540.831,538.549,0.0
51777.0,STARLINK-3625,PAYLOAD,2022-06-02 19:01:09,15.0884408,0.0001515,53.2136,35.7626,60.9705,299.1438,2.2374e-05,6.8e-07,0.0,0 STARLINK-3625,1 51777U 22017K   22153.79247483  .00000068  00000-0  22374-4 0  9992,2 51777  53.2136  35.7626 0001515  60.9705 299.1438 15.08844080 16356,6917.868,95.437,540.781,538.685,0.0
51777.0,STARLINK-3625,PAYLOAD,2022-06-02 20:36:32,15.08846333,0.0001587,53.2135,35.4659,60.8853,299.2298,3.5904e-05,2.84e-06,0.0,0 STARLINK-3625,1 51777U 22017K   22153.85871290  .00000284  00000-0  35904-4 0  9991,2 51777  53.2135  35.4659 0001587  60.8853 299.2298 15.08846333 14895,6917.861,95.437,540.8240000000002,538.628,0.0
51777.0,STARLINK-3625,PAYLOAD,2022-06-03 09:19:38,15.08839569,0.000139,53.2128,33.0871,60.0883,300.0247,-7.4768e-05,-1.478e-05,0.0,0 STARLINK-3625,1 51777U 22017K   22154.38863933 -.00001478  00000-0 -74768-4 0  9994,2 51777  53.2128  33.0871 0001390  60.0883 300.0247 15.08839569 16445,6917.882,95.438,540.7080000000002,538.785,0.0
51777.0,STARLINK-3625,PAYLOAD,2022-06-03 22:02:43,15.08841702,0.0001424,53.2127,30.7079,60.0476,300.0658,-6.4232e-05,-1.31e-05,0.0,0 STARLINK-3625,1 51777U 22017K   22154.91855656 -.00001310  00000-0 -64232-4 0  9996,2 51777  53.2127  30.7079 0001424  60.0476 300.0658 15.08841702 15058,6917.875,95.437,540.725,538.755,0.0
51777.0,STARLINK-3625,PAYLOAD,2022-06-04 01:13:29,15.08843171,0.0001564,53.2132,30.1129,63.2029,296.9123,2.8868e-05,1.71e-06,0.0,0 STARLINK-3625,1 51777U 22017K   22155.05103189  .00000171  00000-0  28868-4 0  9996,2 51777  53.2132  30.1129 0001564  63.2029 296.9123 15.08843171 16545,6917.871,95.437,540.818,538.654,0.0
51777.0,STARLINK-3625,PAYLOAD,2022-06-04 09:10:24,15.08846613,0.0001633,53.2133,28.6262,60.8401,299.2754,4.9732e-05,5.04e-06,0.0,0 STARLINK-3625,1 51777U 22017K   22155.38222796  .00000504  00000-0  49732-4 0  9991,2 51777  53.2133  28.6262 0001633  60.8401 299.2754 15.08846613 15123,6917.86,95.437,540.855,538.595,0.0
51777.0,STARLINK-3625,PAYLOAD,2022-06-05 22:00:00,15.0885462,0.0001716,53.2146,21.7379,59.8212,359.6973,-0.0030618,-0.00048707,0.0,0 STARLINK-3625,1 51777U 22017K   22156.91667824 -.00048707  00000-0 -30618-2 0  9996,2 51777  53.2146  21.7379 0001716  59.8212 359.6973 15.08854620 16829,6917.8359999999975,95.437,540.888,538.514,0.0
51777.0,STARLINK-3625,PAYLOAD,2022-06-06 14:00:01,15.08825138,0.0001554,53.2149,18.7431,66.77199999999999,15.9277,0.0021031,0.00033328,0.0,0 STARLINK-3625,1 51777U 22017K   22157.58334491  .00033328  00000-0  21031-2 0  9991,2 51777  53.2149  18.7431 0001554  66.7720  15.9277 15.08825138 16920,6917.926,95.438,540.866,538.716,0.0
51777.0,STARLINK-3625,PAYLOAD,2022-06-06 22:00:00,15.0884304,0.0001668,53.2149,17.2485,60.0506,34.2441,-0.0002407,-4.117e-05,0.0,0 STARLINK-3625,1 51777U 22017K   22157.91667824 -.00004117  00000-0 -24070-3 0  9990,2 51777  53.2149  17.2485 0001668  60.0506  34.2441 15.08843040  1303,6917.871,95.437,540.89,538.582,0.0
51777.0,STARLINK-3625,PAYLOAD,2022-06-07 06:00:00,15.08877189,0.0001557,53.2146,15.7513,59.6939,46.1953,-0.0045211,-0.00071599,0.0,0 STARLINK-3625,1 51777U 22017K   22158.25001157 -.00071599  00000-0 -45211-2 0  9996,2 51777  53.2146  15.7513 0001557  59.6939  46.1953 15.08877189 17023,6917.767,95.435,540.7090000000002,538.555,0.0
51777.0,STARLINK-3625,PAYLOAD,2022-06-07 14:00:01,15.08821271,0.0001426,53.215,14.2538,67.0783,50.4217,0.0017475,0.00027619,0.0,0 STARLINK-3625,1 51777U 22017K   22158.58334491  .00027619  00000-0  17475-2 0  9995,2 51777  53.2150  14.2538 0001426  67.0783  50.4217 15.08821271  1300,6917.938,95.439,540.789,538.816,0.0
51777.0,STARLINK-3625,PAYLOAD,2022-06-07 22:00:00,15.0883476,0.0001534,53.2148,12.7594,59.1413,69.95,0.00038452,5.836e-05,0.0,0 STARLINK-3625,1 51777U 22017K   22158.91667824  .00005836  00000-0  38452-3 0  9997,2 51777  53.2148  12.7594 0001534  59.1413  69.9500 15.08834760 17128,6917.896,95.438,540.823,538.7,0.0
51777.0,STARLINK-3625,PAYLOAD,2022-06-08 14:00:01,15.08850092,0.0001493,53.2148,9.7648,70.1129,82.1682,-0.001297,-0.00020876,0.0,0 STARLINK-3625,1 51777U 22017K   22159.58334491 -.00020876  00000-0 -12970-2 0  9991,2 51777  53.2148   9.7648 0001493  70.1129  82.1682 15.08850092  1302,6917.85,95.437,540.747,538.682,0.0
51777.0,STARLINK-3625,PAYLOAD,2022-06-08 22:00:01,15.08819679,0.0001641999999999,53.2145,8.2702,62.7331,101.2096,0.0007024,0.00010902,0.0,0 STARLINK-3625,1 51777U 22017K   22159.91668981  .00010902  00000-0  70240-3 0  9994,2 51777  53.2145   8.2702 0001642  62.7331 101.2096 15.08819679 17284,6917.943,95.439,540.943,538.672,0.0
51777.0,STARLINK-3625,PAYLOAD,2022-06-09 14:00:01,15.08838962,0.0001559,53.2143,5.2758,72.1794,114.8609,0.00083074,0.00012958,0.0,0 STARLINK-3625,1 51777U 22017K   22160.58334491  .00012958  00000-0  83074-3 0  9997,2 51777  53.2143   5.2758 0001559  72.1794 114.8609 15.08838962  1307,6917.884,95.438,540.827,538.67,0.0
51777.0,STARLINK-3625,PAYLOAD,2022-06-09 22:00:00,15.08841731,0.0001631,53.214,3.7812,62.9437,135.6959,-0.0010132,-0.00016378,0.0,0 STARLINK-3625,1 51777U 22017K   22160.91667824 -.00016378  00000-0 -10132-2 0  9999,2 51777  53.2140   3.7812 0001631  62.9437 135.6959 15.08841731  1307,6917.875,95.437,540.868,538.612,0.0
51777.0,STARLINK-3625,PAYLOAD,2022-06-10 00:00:00,15.08831675,0.0001599,53.2139,3.4072,61.1711,230.3702,-4.3041e-05,-9.73e-06,0.0,0 STARLINK-3625,1 51777U 22017K   22161.00001157 -.00000973  00000-0 -43041-4 0  9992,2 51777  53.2139   3.4072 0001599  61.1711 230.3702 15.08831675 17446,6917.906,95.438,540.877,538.665,0.0
51777.0,STARLINK-3625,PAYLOAD,2022-06-10 14:00:01,15.08829986,0.0001486999999999,53.2139,0.7862,70.4947,151.3128,0.00058226,8.988e-05,0.0,0 STARLINK-3625,1 51777U 22017K   22161.58334491  .00008988  00000-0  58226-3 0  9997,2 51777  53.2139   0.7862 0001487  70.4947 151.3128 15.08829986  1307,6917.911,95.438,540.805,538.747,0.0
